! Orbits computed with differential corrections
format  = 'OEF1.1'       ! file format
rectype = 'ML'           ! record type (1L/ML)
refsys  = ECLM J2000     ! default reference system
END_OF_HEADER
1996 RO13
! Equinoctial elements: a, e*sin(LP), e*cos(LP), tan(i/2)*sin(LN), tan(i/2)*cos(LN), mean long.
 EQU   3.21771000223041E+00  0.134937092324720  0.128972225867176 -0.002463342747350 -0.000751148176771  10.6003525012540
 MJD     50345.36383972 TDT
 MAG  14.622  0.000
! RMS    1.69286E-03   2.61347E-03   7.59477E-03   1.14802E-05   1.66126E-05   2.61424E-01
! EIG   3.30100E-07   4.51928E-07   1.08166E-05   1.61022E-04   1.85007E-03   9.20578E-03
! WEA  -0.14710  -0.27724  -0.81792  -0.00123  -0.00133  -0.48218
 COV   2.865771804042648E-06  4.016056520519916E-06  9.201868590550495E-06
 COV   1.369341401498641E-08  1.361869454944151E-08  4.046166584304517E-04
 COV   6.830205885165096E-06  1.865890986688413E-05  2.800340506927020E-08
 COV   2.964371539593677E-08  6.831297372264245E-04  5.768051558864516E-05
 COV   8.695438331934619E-08  9.535286216975503E-08  1.854981623726233E-03
 COV   1.317946120636672E-10  1.364742609841366E-10  2.783322878655932E-06
 COV   2.759788726961902E-10  2.940863172455865E-06  6.834262034892050E-02
 NOR   6.710987606056474E+07 -1.678705217073553E+10  2.810529587279842E+08
 NOR   2.075328228976708E+09  1.029043022533386E+08  1.596829869697321E+08
 NOR   7.067118960847491E+12 -1.170122236722471E+11 -3.230180762852423E+09
 NOR   1.448851888728035E+10 -6.736564778558958E+10  1.951436561493282E+09
 NOR  -7.693781894277632E+09 -7.535425995416698E+08  1.115329817539185E+09
 NOR   4.876135007029782E+12  3.125740669435914E+11  1.679257395940246E+07
 NOR   2.864965406134801E+10 -1.389413580601804E+08  6.421514598304927E+08
